{
  "type": "FeatureCollection",
  "features": [
    {
      "type": "Feature",
      "properties": {
        "norad_id": 29876,
        "name": "FENGYUN 1C DEB",
        "group": "fengyun-1c-debris",
        "lat": 70.87869865263208,
        "lon": 7.466115530573684,
        "alt_km": 783.5231460225723,
        "timestamp": "2025-12-07T14:37:05.476620+00:00",
        "meta_object_name": "FENGYUN 1C DEB",
        "meta_object_id": "1999-025FW",
        "meta_epoch": "2025-12-06T22:12:26.565408",
        "meta_mean_motion": 14.20291863,
        "meta_eccentricity": 0.00618363,
        "meta_inclination": 98.334,
        "meta_ra_of_asc_node": 31.8332,
        "meta_arg_of_pericenter": 34.2231,
        "meta_mean_anomaly": 143.8516,
        "meta_ephemeris_type": 0,
        "meta_classification_type": "U",
        "meta_norad_cat_id": 29876,
        "meta_element_set_no": 999,
        "meta_rev_at_epoch": 97834,
        "meta_bstar": 0.00024702589,
        "meta_mean_motion_dot": 4.98e-06,
        "meta_mean_motion_ddot": 0,
        "tle_line1": "1 29876U 99025FW  25340.92530747  .00000498  00000+0  24703-3 0  9997",
        "tle_line2": "2 29876  98.3340  31.8332 0061836  34.2231 143.8516 14.20291863978345"
      },
      "geometry": {
        "type": "Point",
        "coordinates": [
          7.466115530573684,
          70.87869865263208
        ]
      }
    },
    {
      "type": "Feature",
      "properties": {
        "norad_id": 29877,
        "name": "FENGYUN 1C DEB",
        "group": "fengyun-1c-debris",
        "lat": -29.56761574687947,
        "lon": 162.17334944044654,
        "alt_km": 785.0943440796973,
        "timestamp": "2025-12-07T14:37:05.476630+00:00",
        "meta_object_name": "FENGYUN 1C DEB",
        "meta_object_id": "1999-025FX",
        "meta_epoch": "2025-12-06T14:35:15.222912",
        "meta_mean_motion": 14.24771144,
        "meta_eccentricity": 0.0045624,
        "meta_inclination": 98.5371,
        "meta_ra_of_asc_node": 346.0884,
        "meta_arg_of_pericenter": 236.56,
        "meta_mean_anomaly": 240.6687,
        "meta_ephemeris_type": 0,
        "meta_classification_type": "U",
        "meta_norad_cat_id": 29877,
        "meta_element_set_no": 999,
        "meta_rev_at_epoch": 97886,
        "meta_bstar": 0.00084014688,
        "meta_mean_motion_dot": 1.936e-05,
        "meta_mean_motion_ddot": 0,
        "tle_line1": "1 29877U 99025FX  25340.60781508  .00001936  00000+0  84015-3 0  9996",
        "tle_line2": "2 29877  98.5371 346.0884 0045624 236.5600 240.6687 14.24771144978860"
      },
      "geometry": {
        "type": "Point",
        "coordinates": [
          162.17334944044654,
          -29.56761574687947
        ]
      }
    },
    {
      "type": "Feature",
      "properties": {
        "norad_id": 29878,
        "name": "FENGYUN 1C DEB",
        "group": "fengyun-1c-debris",
        "lat": 58.94875908708468,
        "lon": -13.712714259165002,
        "alt_km": 530.1537632196469,
        "timestamp": "2025-12-07T14:37:05.476641+00:00",
        "meta_object_name": "FENGYUN 1C DEB",
        "meta_object_id": "1999-025FY",
        "meta_epoch": "2025-12-06T11:00:36.591840",
        "meta_mean_motion": 15.07690667,
        "meta_eccentricity": 0.00309085,
        "meta_inclination": 96.9478,
        "meta_ra_of_asc_node": 153.5617,
        "meta_arg_of_pericenter": 197.7899,
        "meta_mean_anomaly": 162.2251,
        "meta_ephemeris_type": 0,
        "meta_classification_type": "U",
        "meta_norad_cat_id": 29878,
        "meta_element_set_no": 999,
        "meta_rev_at_epoch": 98553,
        "meta_bstar": 0.012767679,
        "meta_mean_motion_dot": 0.00202116,
        "meta_mean_motion_ddot": 0,
        "tle_line1": "1 29878U 99025FY  25340.45875685  .00202116  00000+0  12768-1 0  9997",
        "tle_line2": "2 29878  96.9478 153.5617 0030908 197.7899 162.2251 15.07690667985533"
      },
      "geometry": {
        "type": "Point",
        "coordinates": [
          -13.712714259165002,
          58.94875908708468
        ]
      }
    },
    {
      "type": "Feature",
      "properties": {
        "norad_id": 29880,
        "name": "FENGYUN 1C DEB",
        "group": "fengyun-1c-debris",
        "lat": -45.28075096614299,
        "lon": -90.90758345601901,
        "alt_km": 1081.5115164090003,
        "timestamp": "2025-12-07T14:37:05.476650+00:00",
        "meta_object_name": "FENGYUN 1C DEB",
        "meta_object_id": "1999-025GA",
        "meta_epoch": "2025-12-06T18:26:31.953696",
        "meta_mean_motion": 13.93881069,
        "meta_eccentricity": 0.02313238,
        "meta_inclination": 98.1943,
        "meta_ra_of_asc_node": 259.9792,
        "meta_arg_of_pericenter": 118.2178,
        "meta_mean_anomaly": 300.747,
        "meta_ephemeris_type": 0,
        "meta_classification_type": "U",
        "meta_norad_cat_id": 29880,
        "meta_element_set_no": 999,
        "meta_rev_at_epoch": 95479,
        "meta_bstar": 0.0014300162,
        "meta_mean_motion_dot": 2.321e-05,
        "meta_mean_motion_ddot": 0,
        "tle_line1": "1 29880U 99025GA  25340.76842539  .00002321  00000+0  14300-2 0  9997",
        "tle_line2": "2 29880  98.1943 259.9792 0231323 118.2178 300.7470 13.93881069954791"
      },
      "geometry": {
        "type": "Point",
        "coordinates": [
          -90.90758345601901,
          -45.28075096614299
        ]
      }
    },
    {
      "type": "Feature",
      "properties": {
        "norad_id": 29881,
        "name": "FENGYUN 1C DEB",
        "group": "fengyun-1c-debris",
        "lat": -41.04470208584218,
        "lon": -37.97628254878732,
        "alt_km": 1168.7352020228427,
        "timestamp": "2025-12-07T14:37:05.476661+00:00",
        "meta_object_name": "FENGYUN 1C DEB",
        "meta_object_id": "1999-025GB",
        "meta_epoch": "2025-12-06T21:25:33.364992",
        "meta_mean_motion": 13.59579671,
        "meta_eccentricity": 0.02920102,
        "meta_inclination": 98.7216,
        "meta_ra_of_asc_node": 313.7045,
        "meta_arg_of_pericenter": 86.9512,
        "meta_mean_anomaly": 329.9537,
        "meta_ephemeris_type": 0,
        "meta_classification_type": "U",
        "meta_norad_cat_id": 29881,
        "meta_element_set_no": 999,
        "meta_rev_at_epoch": 93155,
        "meta_bstar": 0.0031743692,
        "meta_mean_motion_dot": 3.081e-05,
        "meta_mean_motion_ddot": 0,
        "tle_line1": "1 29881U 99025GB  25340.89274728  .00003081  00000+0  31744-2 0  9996",
        "tle_line2": "2 29881  98.7216 313.7045 0292010  86.9512 329.9537 13.59579671931555"
      },
      "geometry": {
        "type": "Point",
        "coordinates": [
          -37.97628254878732,
          -41.04470208584218
        ]
      }
    },
    {
      "type": "Feature",
      "properties": {
        "norad_id": 29884,
        "name": "FENGYUN 1C DEB",
        "group": "fengyun-1c-debris",
        "lat": -54.13730853329967,
        "lon": -179.12306008248166,
        "alt_km": 760.9150620591154,
        "timestamp": "2025-12-07T14:37:05.476671+00:00",
        "meta_object_name": "FENGYUN 1C DEB",
        "meta_object_id": "1999-025GE",
        "meta_epoch": "2025-12-06T16:26:50.085024",
        "meta_mean_motion": 14.40260843,
        "meta_eccentricity": 0.00445222,
        "meta_inclination": 99.6029,
        "meta_ra_of_asc_node": 13.3862,
        "meta_arg_of_pericenter": 154.2271,
        "meta_mean_anomaly": 333.3457,
        "meta_ephemeris_type": 0,
        "meta_classification_type": "U",
        "meta_norad_cat_id": 29884,
        "meta_element_set_no": 999,
        "meta_rev_at_epoch": 98462,
        "meta_bstar": 0.0011997237,
        "meta_mean_motion_dot": 3.792e-05,
        "meta_mean_motion_ddot": 0,
        "tle_line1": "1 29884U 99025GE  25340.68530191  .00003792  00000+0  11997-2 0  9992",
        "tle_line2": "2 29884  99.6029  13.3862 0044522 154.2271 333.3457 14.40260843984629"
      },
      "geometry": {
        "type": "Point",
        "coordinates": [
          -179.12306008248166,
          -54.13730853329967
        ]
      }
    },
    {
      "type": "Feature",
      "properties": {
        "norad_id": 29885,
        "name": "FENGYUN 1C DEB",
        "group": "fengyun-1c-debris",
        "lat": -47.02101369859017,
        "lon": 87.90383571906101,
        "alt_km": 796.8984128624643,
        "timestamp": "2025-12-07T14:37:05.476681+00:00",
        "meta_object_name": "FENGYUN 1C DEB",
        "meta_object_id": "1999-025GF",
        "meta_epoch": "2025-12-06T19:07:31.539648",
        "meta_mean_motion": 14.13576627,
        "meta_eccentricity": 0.01180175,
        "meta_inclination": 98.3546,
        "meta_ra_of_asc_node": 276.2183,
        "meta_arg_of_pericenter": 181.3906,
        "meta_mean_anomaly": 234.3634,
        "meta_ephemeris_type": 0,
        "meta_classification_type": "U",
        "meta_norad_cat_id": 29885,
        "meta_element_set_no": 999,
        "meta_rev_at_epoch": 97373,
        "meta_bstar": 0.00022806185,
        "meta_mean_motion_dot": 4.2e-06,
        "meta_mean_motion_ddot": 0,
        "tle_line1": "1 29885U 99025GF  25340.79689282  .00000420  00000+0  22806-3 0  9998",
        "tle_line2": "2 29885  98.3546 276.2183 0118017 181.3906 234.3634 14.13576627973730"
      },
      "geometry": {
        "type": "Point",
        "coordinates": [
          87.90383571906101,
          -47.02101369859017
        ]
      }
    }
  ]
}